IRIDIUM 116             
1 43072U 17083C   24352.64841376  .00000334  00000+0  11237-3 0  9996
2 43072  86.3990 190.4172 0001860  93.6744 266.4665 14.34219837365837
IRIDIUM 130             
1 43073U 17083D   24352.82600803 -.00000200  00000+0 -78517-4 0  9994
2 43073  86.4000 190.5645 0001722  84.9728 275.1664 14.34216708365806
IRIDIUM 151             
1 43074U 17083E   24352.66110831  .00000483  00000+0  16541-3 0  9993
2 43074  86.3992 190.4572 0002075  91.8609 268.2825 14.34219879365805
IRIDIUM 134             
1 43075U 17083F   24352.83869159  .00000493  00000+0  16900-3 0  9997
2 43075  86.3991 190.3836 0001833  88.8483 271.2923 14.34220737365790
IRIDIUM 137             
1 43076U 17083G   24352.85137639  .00000189  00000+0  60513-4 0  9993
2 43076  86.3994 190.4597 0002055 103.8084 256.3340 14.34216326365865
IRIDIUM 141             
1 43077U 17083H   24352.63572868  .00000228  00000+0  74347-4 0  9991
2 43077  86.3988 190.4113 0002143  80.1869 279.9569 14.34217202365834
IRIDIUM 153             
1 43078U 17083J   24352.93675048  .00000158  00000+0  49458-4 0  9996
2 43078  86.3988 158.8125 0002356  77.9412 282.2047 14.34219060366989
IRIDIUM 131             
1 43079U 17083K   24352.83234907  .00000413  00000+0  14041-3 0  9994
2 43079  86.3995 190.4790 0002154  87.2774 272.8668 14.34220554365791
